OBJECT_NAME,OBJECT_ID,EPOCH,MEAN_MOTION,ECCENTRICITY,INCLINATION,RA_OF_ASC_NODE,ARG_OF_PERICENTER,MEAN_ANOMALY,EPHEMERIS_TYPE,CLASSIFICATION_TYPE,NORAD_CAT_ID,ELEMENT_SET_NO,REV_AT_EPOCH,BSTAR,MEAN_MOTION_DOT,MEAN_MOTION_DDOT
EYESAT A (AO-27),1993-061C,2026-06-18T02:50:51.984672,14.30942518,.00095395,98.6880,236.5319,97.3828,262.8439,0,U,22825,999,70713,.4585665E-4,.76E-6,0
ITAMSAT (IO-26),1993-061D,2026-06-18T04:01:28.848000,14.31369433,.00100626,98.6828,236.4984,82.4093,277.8232,0,U,22826,999,70745,.45488187E-4,.76E-6,0
RADIO ROSTO (RS15),1994-085A,2026-06-17T21:56:25.387008,11.27583479,.01559697,64.8179,302.0404,3.7415,356.4638,0,U,23439,999,29598,-.20633955E-3,-.5E-6,0
JAS-2 (FO-29),1996-046B,2026-06-18T01:12:39.948768,13.53274469,.0350914,98.5238,17.8043,94.1986,269.9331,0,U,24278,999,47328,.30027018E-4,-.3E-7,0
FORTE,1997-047A,2026-06-18T00:07:52.486176,14.27945404,.00246281,69.9539,12.1730,276.4012,83.4305,0,U,24920,999,49880,.69689597E-4,.115E-5,0
TECHSAT 1B (GO-32),1998-043D,2026-06-17T23:27:40.219776,14.24428526,.00011067,99.0067,161.7561,161.1376,198.9843,0,U,25397,999,45144,.35812267E-4,.36E-6,0
ISS (ZARYA),1998-067A,2026-06-18T03:46:08.346720,15.49293017,.00047434,51.6334,295.2921,200.3344,159.7456,0,U,25544,999,57190,.18166151E-3,.9674E-4,0
IMAGE,2000-017A,2026-06-11T08:17:58.695072,1.68665984,.7436383,94.2241,315.2958,288.4674,8.8959,0,U,26113,999,16140,.22926E-1,.11E-6,0
CLUSTER II-FM7 (SAMBA),2000-041A,2026-06-17T03:20:03.973632,0.44868040,.9054007,149.9159,50.9864,268.1291,359.6411,0,U,26410,999,2030,0,.13373E-3,0
CLUSTER II-FM8 (TANGO),2000-045B,2026-06-15T04:30:08.872416,0.44418308,.90570043,150.1504,51.7507,268.7261,2.8044,0,U,26464,999,2030,0,.11725E-3,0
ODIN,2001-007A,2026-06-18T02:38:58.872768,15.76090472,.00065398,97.3824,210.1119,141.7111,218.4620,0,U,26702,999,38954,.95192313E-3,.150302E-2,0
OMNI-M1,2001-026A,2026-06-16T05:01:03.889056,3.92401638,.0014194,44.8307,245.4893,53.4474,306.7446,0,U,26857,999,20553,0,-.1E-7,0
PCSAT (NO-44),2001-043C,2026-06-18T04:58:04.416384,14.31956418,.00060735,67.0505,241.6342,264.6735,95.3674,0,U,26931,999,29059,.59168338E-4,.76E-6,0
PROBA-1,2001-049B,2026-06-18T07:57:17.406144,15.07498041,.00564874,97.9594,177.9042,118.0878,242.6075,0,U,26958,999,34379,.98353145E-4,.1476E-4,0
SAUDISAT 1C (SO-50),2002-058C,2026-06-18T07:14:22.204032,14.83049007,.00751965,64.5511,125.5368,262.2633,96.9930,0,U,27607,999,26462,.10895501E-3,.775E-5,0
CORIOLIS,2003-001A,2026-06-17T23:20:06.447840,14.19944946,.00134242,98.7125,175.8451,206.4111,153.6382,0,U,27640,999,21433,.53111117E-4,.69E-6,0
CUTE-1 (CO-55),2003-031E,2026-06-18T00:29:44.023488,14.24336174,.00096097,98.6736,177.5689,175.5784,184.5482,0,U,27844,999,19179,.11471233E-3,.221E-5,0
CUBESAT XI-IV (CO-57),2003-031J,2026-06-17T22:32:30.413760,14.23621196,.0009073,98.6765,177.2007,194.7196,165.3719,0,U,27848,999,19148,.10079477E-3,.186E-5,0
MOZHAETS 4 (RS22),2003-042A,2026-06-18T07:14:29.193792,14.73469081,.00099255,98.3464,353.6914,265.8597,171.6955,0,U,27939,999,21571,.13752074E-3,.839E-5,0
